NORAD_CAT_ID,OBJECT_NAME,OBJECT_TYPE,EPOCH,MEAN_MOTION,ECCENTRICITY,INCLINATION,RA_OF_ASC_NODE,ARG_OF_PERICENTER,MEAN_ANOMALY,BSTAR,MEAN_MOTION_DOT,MEAN_MOTION_DDOT,TLE_LINE0,TLE_LINE1,TLE_LINE2,SEMIMAJOR_AXIS,PERIOD,APOGEE,PERIGEE,DECAYED
51956.0,STARLINK-3700,PAYLOAD,2023-11-09 21:28:18,15.08027281,0.0001414,53.0543,246.5774,69.7526,290.3616,0.00029758,4.35e-05,0.0,0 STARLINK-3700,1 51956U 22025A   23313.89465503  .00004350  00000-0  29758-3 0  9995,2 51956  53.0543 246.5774 0001414  69.7526 290.3616 15.08027281 92730,6920.366,95.489,543.209,541.252,0.0
51956.0,STARLINK-3700,PAYLOAD,2023-11-10 05:25:28,15.08046004,0.0001553,53.0555,245.0778,94.0287,266.088,0.00039982,5.947e-05,0.0,0 STARLINK-3700,1 51956U 22025A   23314.22601932  .00005947  00000-0  39982-3 0  9994,2 51956  53.0555 245.0778 0001553  94.0287 266.0880 15.08046004 92782,6920.308,95.488,543.248,541.099,0.0
51956.0,STARLINK-3700,PAYLOAD,2023-11-11 02:06:08,15.08036317,0.000167,53.0549,241.1985,99.0993,261.0186,7.986e-05,9.58e-06,0.0,0 STARLINK-3700,1 51956U 22025A   23315.08759595  .00000958  00000-0  79860-4 0  9995,2 51956  53.0549 241.1985 0001670  99.0993 261.0186 15.08036317 94008,6920.338,95.488,543.359,541.047,0.0
51956.0,STARLINK-3700,PAYLOAD,2023-11-11 11:38:45,15.0803486,0.0001704,53.0553,239.4112,84.3431,275.7753,5.5094e-05,5.72e-06,0.0,0 STARLINK-3700,1 51956U 22025A   23315.48524694  .00000572  00000-0  55094-4 0  9994,2 51956  53.0553 239.4112 0001704  84.3431 275.7753 15.08034860 92974,6920.342,95.489,543.387,541.028,0.0
51956.0,STARLINK-3700,PAYLOAD,2023-11-12 01:57:40,15.08030528,0.0001587,53.0549,236.7338,100.903,259.2138,0.00010341,1.324e-05,0.0,0 STARLINK-3700,1 51956U 22025A   23316.08172212  .00001324  00000-0  10341-3 0  9997,2 51956  53.0549 236.7338 0001587 100.9030 259.2138 15.08030528 94151,6920.356,95.489,543.319,541.122,0.0
51956.0,STARLINK-3700,PAYLOAD,2023-11-12 11:30:17,15.08036661,0.0001258,53.0544,234.9381,85.8398,274.2736,4.2545e-05,3.77e-06,0.0,0 STARLINK-3700,1 51956U 22025A   23316.47936646  .00000377  00000-0  42545-4 0  9998,2 51956  53.0544 234.9381 0001258  85.8398 274.2736 15.08036661 93128,6920.337,95.488,543.073,541.331,0.0
51956.0,STARLINK-3700,PAYLOAD,2023-11-12 22:38:21,15.08031564,0.0001831,53.0562,232.857,117.175,242.9426,5.611e-06,-1.99e-06,0.0,0 STARLINK-3700,1 51956U 22025A   23316.94330010 -.00000199  00000-0  56110-5 0  9990,2 51956  53.0562 232.8570 0001831 117.1750 242.9426 15.08031564 93195,6920.353,95.489,543.485,540.95,0.0
51956.0,STARLINK-3700,PAYLOAD,2023-11-13 11:21:50,15.08035813,0.0001843,53.056,230.4644,74.7747,285.3446,0.00013006,1.74e-05,0.0,0 STARLINK-3700,1 51956U 22025A   23317.47349542  .00001740  00000-0  13006-3 0  9996,2 51956  53.0560 230.4644 0001843  74.7747 285.3446 15.08035813 94360,6920.34,95.488,543.48,540.929,0.0
51956.0,STARLINK-3700,PAYLOAD,2023-11-14 03:16:11,15.08035382,0.000187,53.0552,227.4833,83.0247,277.0955,1.4309e-05,-6.3e-07,0.0,0 STARLINK-3700,1 51956U 22025A   23318.13624862 -.00000063  00000-0  14309-4 0  9997,2 51956  53.0552 227.4833 0001870  83.0247 277.0955 15.08035382 94460,6920.341,95.488,543.5,540.912,0.0
51956.0,STARLINK-3700,PAYLOAD,2023-11-14 11:13:22,15.08031039,0.000143,53.0544,225.9915,89.077,271.0384,2.3652e-05,8.2e-07,0.0,0 STARLINK-3700,1 51956U 22025A   23318.46762332  .00000082  00000-0  23652-4 0  9999,2 51956  53.0544 225.9915 0001430  89.0770 271.0384 15.08031039 93424,6920.354,95.489,543.209,541.23,0.0
51956.0,STARLINK-3700,PAYLOAD,2023-11-15 03:07:43,15.08041389,0.0001584,53.056,223.0084,84.2291,275.8879,9.5157e-05,1.196e-05,0.0,0 STARLINK-3700,1 51956U 22025A   23319.13036483  .00001196  00000-0  95157-4 0  9991,2 51956  53.0560 223.0084 0001584  84.2291 275.8879 15.08041389 93524,6920.323,95.488,543.284,541.091,0.0
51956.0,STARLINK-3700,PAYLOAD,2023-11-15 20:37:32,15.08023914,0.0001521,53.0553,219.7298,85.9569,274.1594,3.2504e-05,2.2e-06,0.0,0 STARLINK-3700,1 51956U 22025A   23319.85940304  .00000220  00000-0  32504-4 0  9990,2 51956  53.0553 219.7298 0001521  85.9569 274.1594 15.08023914 93634,6920.376,95.489,543.294,541.188,0.0
51956.0,STARLINK-3700,PAYLOAD,2023-11-16 02:59:16,15.08035516,0.0001436,53.0558,218.5339,96.8759,263.2394,1.8271e-05,-1e-08,0.0,0 STARLINK-3700,1 51956U 22025A   23320.12449570 -.00000001  00000-0  18271-4 0  9994,2 51956  53.0558 218.5339 0001436  96.8759 263.2394 15.08035516 94762,6920.34,95.488,543.199,541.212,0.0
51956.0,STARLINK-3700,PAYLOAD,2023-11-17 02:50:48,15.08021749,0.0001587,53.0555,214.0606,101.8337,258.2831,0.00031925,4.687e-05,0.0,0 STARLINK-3700,1 51956U 22025A   23321.11861714  .00004687  00000-0  31925-3 0  9995,2 51956  53.0555 214.0606 0001587 101.8337 258.2831 15.08021749 93822,6920.383,95.489,543.346,541.149,0.0
51956.0,STARLINK-3700,PAYLOAD,2023-11-17 23:31:29,15.08027579,0.0001842,53.0551,210.1854,89.9679,270.1522,3.5492e-06,-2.31e-06,0.0,0 STARLINK-3700,1 51956U 22025A   23321.98020008 -.00000231  00000-0  35492-5 0  9990,2 51956  53.0551 210.1854 0001842  89.9679 270.1522 15.08027579 95042,6920.365,95.489,543.504,540.955,0.0
51956.0,STARLINK-3700,PAYLOAD,2023-11-18 17:01:16,15.0803085,0.0001647,53.0553,206.9021,86.4814,273.6364,2.6104e-05,1.2e-06,0.0,0 STARLINK-3700,1 51956U 22025A   23322.70922170  .00000120  00000-0  26104-4 0  9997,2 51956  53.0553 206.9021 0001647  86.4814 273.6364 15.08030850 94068,6920.355,95.489,543.36,541.08,0.0
51956.0,STARLINK-3700,PAYLOAD,2023-11-18 23:23:01,15.08031421,0.0001854,53.0484,205.71,91.8474,268.2728,0.0001193,1.572e-05,0.0,0 STARLINK-3700,1 51956U 22025A   23322.97431786  .00001572  00000-0  11930-3 0  9996,2 51956  53.0484 205.7100 0001854  91.8474 268.2728 15.08031421 95192,6920.353,95.489,543.501,540.935,0.0
51956.0,STARLINK-3700,PAYLOAD,2023-11-19 08:55:37,15.08042364,0.0001223,53.0502,203.9204,87.3779,272.7351,-2.1664e-05,-6.23e-06,0.0,0 STARLINK-3700,1 51956U 22025A   23323.37196424 -.00000623  00000-0 -21664-4 0  9992,2 51956  53.0502 203.9204 0001223  87.3779 272.7351 15.08042364 94162,6920.32,95.488,543.031,541.338,0.0
51956.0,STARLINK-3700,PAYLOAD,2023-11-19 20:03:41,15.08017736,0.0001398,53.0543,201.8327,78.6328,281.4818,0.00019754,2.79e-05,0.0,0 STARLINK-3700,1 51956U 22025A   23323.83589842  .00002790  00000-0  19754-3 0  9994,2 51956  53.0543 201.8327 0001398  78.6328 281.4818 15.08017736 95325,6920.395,95.49,543.227,541.292,0.0
51956.0,STARLINK-3700,PAYLOAD,2023-11-19 21:39:07,15.08009432,0.0001492,53.0538,201.5359,84.8459,275.2701,0.00032049,4.704e-05,0.0,0 STARLINK-3700,1 51956U 22025A   23323.90217315  .00004704  00000-0  32049-3 0  9994,2 51956  53.0538 201.5359 0001492  84.8459 275.2701 15.08009432 94246,6920.42,95.49,543.318,541.253,0.0
51956.0,STARLINK-3700,PAYLOAD,2023-11-20 00:49:59,15.08033842,0.0001637,53.0552,200.9397,93.3238,266.7939,8.077e-05,9.72e-06,0.0,0 STARLINK-3700,1 51956U 22025A   23324.03471782  .00000972  00000-0  80770-4 0  9997,2 51956  53.0552 200.9397 0001637  93.3238 266.7939 15.08033842 95351,6920.346,95.489,543.343,541.078,0.0
51956.0,STARLINK-3700,PAYLOAD,2023-11-20 08:47:10,15.08032251,6.21e-05,53.0538,199.4466,31.9596,328.1432,4.9959e-05,4.92e-06,0.0,0 STARLINK-3700,1 51956U 22025A   23324.36609442  .00000492  00000-0  49959-4 0  9990,2 51956  53.0538 199.4466 0000621  31.9596 328.1432 15.08032251 95401,6920.35,95.489,542.645,541.786,0.0
51956.0,STARLINK-3700,PAYLOAD,2023-11-20 21:30:40,15.0803015,0.0001808,53.0547,197.0623,92.841,267.2786,-3.3114e-05,-8.02e-06,0.0,0 STARLINK-3700,1 51956U 22025A   23324.89629869 -.00000802  00000-0 -33114-4 0  9996,2 51956  53.0547 197.0623 0001808  92.8410 267.2786 15.08030150 94397,6920.357,95.489,543.473,540.971,0.0
51956.0,STARLINK-3700,PAYLOAD,2023-11-21 08:38:43,15.08028058,0.0001586,53.0536,194.9726,87.5937,272.5234,-2.3335e-06,-3.22e-06,0.0,0 STARLINK-3700,1 51956U 22025A   23325.36022334 -.00000322  00000-0 -23335-5 0  9995,2 51956  53.0536 194.9726 0001586  87.5937 272.5234 15.08028058 94462,6920.363,95.489,543.326,541.131,0.0
51956.0,STARLINK-3700,PAYLOAD,2023-11-21 21:22:12,15.08033817,0.0001509,53.0536,192.5866,88.3616,271.7546,-1.1336e-07,-2.88e-06,0.0,0 STARLINK-3700,1 51956U 22025A   23325.89042053 -.00000288  00000-0 -11336-6 0  9993,2 51956  53.0536 192.5866 0001509  88.3616 271.7546 15.08033817 94544,6920.346,95.489,543.255,541.166,0.0
51956.0,STARLINK-3700,PAYLOAD,2023-11-21 22:57:38,15.0803234,0.0001594,53.0537,192.2881,100.9809,259.136,3.2966e-05,2.27e-06,0.0,0 STARLINK-3700,1 51956U 22025A   23325.95669481  .00000227  00000-0  32966-4 0  9991,2 51956  53.0537 192.2881 0001594 100.9809 259.1360 15.08032340 95644,6920.35,95.489,543.318,541.112,0.0
51956.0,STARLINK-3700,PAYLOAD,2023-11-22 21:13:44,15.08038202,0.0001457,53.0535,188.1117,90.9729,269.1427,0.00010696,1.38e-05,0.0,0 STARLINK-3700,1 51956U 22025A   23326.88453784  .00001380  00000-0  10696-3 0  9997,2 51956  53.0535 188.1117 0001457  90.9729 269.1427 15.08038202 94697,6920.332,95.488,543.206,541.189,0.0
51956.0,STARLINK-3700,PAYLOAD,2023-11-23 00:24:35,15.08041618,0.0001483,53.0537,187.5147,91.7229,268.393,0.00020713,2.941e-05,0.0,0 STARLINK-3700,1 51956U 22025A   23327.01708253  .00002941  00000-0  20713-3 0  9992,2 51956  53.0537 187.5147 0001483  91.7229 268.3930 15.08041618 95807,6920.322,95.488,543.213,541.161,0.0
51956.0,STARLINK-3700,PAYLOAD,2023-11-23 14:43:32,15.08020922,0.0001132,53.0545,184.8308,88.4743,271.6377,5.3417e-06,-2.03e-06,0.0,0 STARLINK-3700,1 51956U 22025A   23327.61357618 -.00000203  00000-0  53417-5 0  9992,2 51956  53.0545 184.8308 0001132  88.4743 271.6377 15.08020922 94806,6920.385,95.489,543.034,541.467,0.0
51956.0,STARLINK-3700,PAYLOAD,2023-11-23 19:29:51,15.08023059,0.0001307,53.054,183.9369,92.2405,267.8734,1.1189e-05,-1.12e-06,0.0,0 STARLINK-3700,1 51956U 22025A   23327.81240067 -.00000112  00000-0  11189-4 0  9991,2 51956  53.0540 183.9369 0001307  92.2405 267.8734 15.08023059 95922,6920.379,95.489,543.148,541.339,0.0
